NORAD_CAT_ID,OBJECT_NAME,OBJECT_TYPE,EPOCH,MEAN_MOTION,ECCENTRICITY,INCLINATION,RA_OF_ASC_NODE,ARG_OF_PERICENTER,MEAN_ANOMALY,BSTAR,MEAN_MOTION_DOT,MEAN_MOTION_DDOT,TLE_LINE0,TLE_LINE1,TLE_LINE2,SEMIMAJOR_AXIS,PERIOD,APOGEE,PERIGEE,DECAYED
53970.0,STARLINK-4567,PAYLOAD,2023-12-12 04:09:28,15.08844373,0.0001606,53.2174,293.6215,81.088,279.0294,0.00012596,1.717e-05,0.0,0 STARLINK-4567,1 53970U 22125G   23346.17324779  .00001717  00000-0  12596-3 0  9996,2 53970  53.2174 293.6215 0001606  81.0880 279.0294 15.08844373 65898,6917.867,95.437,540.843,538.621,0.0
53970.0,STARLINK-4567,PAYLOAD,2023-12-13 04:00:16,15.08819031,0.0001842,53.218,289.1728,67.8191,292.2997,0.00039136,5.942e-05,0.0,0 STARLINK-4567,1 53970U 22125G   23347.16686037  .00005942  00000-0  39136-3 0  9997,2 53970  53.2180 289.1728 0001842  67.8191 292.2997 15.08819031 66041,6917.944,95.439,541.084,538.535,0.0
53970.0,STARLINK-4567,PAYLOAD,2023-12-14 02:15:40,15.08843025,0.0001796,53.2176,285.011,69.2034,290.9151,5.4888e-05,5.86e-06,0.0,0 STARLINK-4567,1 53970U 22125G   23348.09421336  .00000586  00000-0  54888-4 0  9990,2 53970  53.2176 285.0110 0001796  69.2034 290.9151 15.08843025 66188,6917.871,95.437,540.979,538.494,0.0
53970.0,STARLINK-4567,PAYLOAD,2023-12-15 02:06:26,15.08849041,0.0001619,53.2175,280.5496,76.0997,284.0175,0.00013361,1.84e-05,0.0,0 STARLINK-4567,1 53970U 22125G   23349.08780456  .00001840  00000-0  13361-3 0  9995,2 53970  53.2175 280.5496 0001619  76.0997 284.0175 15.08849041 66333,6917.853,95.437,540.838,538.598,0.0
53970.0,STARLINK-4567,PAYLOAD,2023-12-15 22:46:27,15.08836814,0.0001429,53.2184,276.6737,111.2527,248.8618,-1.4449e-05,-5.18e-06,0.0,0 STARLINK-4567,1 53970U 22125G   23349.94893487 -.00000518  00000-0 -14449-4 0  9991,2 53970  53.2184 276.6737 0001429 111.2527 248.8618 15.08836814 66409,6917.89,95.438,540.744,538.767,0.0
53970.0,STARLINK-4567,PAYLOAD,2023-12-16 01:57:14,15.08836781,0.0001372,53.2176,276.0827,104.3343,255.7801,-9.2021e-06,-4.34e-06,0.0,0 STARLINK-4567,1 53970U 22125G   23350.08141566 -.00000434  00000-0 -92021-5 0  9992,2 53970  53.2176 276.0827 0001372 104.3343 255.7801 15.08836781 66482,6917.89,95.438,540.704,538.806,0.0
53970.0,STARLINK-4567,PAYLOAD,2023-12-16 22:37:14,15.08844268,0.0001203,53.2174,272.2172,98.3375,261.7753,1.0812e-05,-1.16e-06,0.0,0 STARLINK-4567,1 53970U 22125G   23350.94253135 -.00000116  00000-0  10812-4 0  9996,2 53970  53.2174 272.2172 0001203  98.3375 261.7753 15.08844268 66551,6917.867,95.437,540.565,538.9,0.0
53970.0,STARLINK-4567,PAYLOAD,2023-12-17 01:48:00,15.08847594,0.0001317,53.217,271.6249,104.4315,255.6824,9.1559e-05,1.17e-05,0.0,0 STARLINK-4567,1 53970U 22125G   23351.07500921  .00001170  00000-0  91559-4 0  9996,2 53970  53.2170 271.6249 0001317 104.4315 255.6824 15.08847594 66639,6917.857,95.437,540.633,538.811,0.0
53970.0,STARLINK-4567,PAYLOAD,2023-12-17 22:28:01,15.08840522,0.0001303,53.2172,267.7583,93.4303,266.6838,0.00037907,5.75e-05,0.0,0 STARLINK-4567,1 53970U 22125G   23351.93613292  .00005750  00000-0  37907-3 0  9991,2 53970  53.2172 267.7583 0001303  93.4303 266.6838 15.08840522 66706,6917.879,95.438,540.645,538.842,0.0
53970.0,STARLINK-4567,PAYLOAD,2023-12-18 01:38:47,15.0885105,0.0001492,53.2172,267.1641,107.7098,252.4057,0.00029583,4.425e-05,0.0,0 STARLINK-4567,1 53970U 22125G   23352.06860812  .00004425  00000-0  29583-3 0  9997,2 53970  53.2172 267.1641 0001492 107.7098 252.4057 15.08851050 66720,6917.847,95.437,540.744,538.679,0.0
53970.0,STARLINK-4567,PAYLOAD,2023-12-18 22:18:50,15.08825297,0.0001528,53.2172,263.2993,95.0781,265.0386,-0.00017382,-3.052e-05,0.0,0 STARLINK-4567,1 53970U 22125G   23352.92974551 -.00003052  00000-0 -17382-3 0  9999,2 53970  53.2172 263.2993 0001528  95.0781 265.0386 15.08825297 66858,6917.925,95.438,540.847,538.733,0.0
53970.0,STARLINK-4567,PAYLOAD,2023-12-18 23:54:13,15.08826203,0.0001665,53.2168,263.0005,104.1569,255.9608,-0.00016488,-2.91e-05,0.0,0 STARLINK-4567,1 53970U 22125G   23352.99598492 -.00002910  00000-0 -16488-3 0  9990,2 53970  53.2168 263.0005 0001665 104.1569 255.9608 15.08826203 66924,6917.923,95.438,540.939,538.636,0.0
53970.0,STARLINK-4567,PAYLOAD,2023-12-20 01:20:22,15.08851145,0.0001611,53.2158,258.2392,91.1741,268.9436,0.00039212,5.96e-05,0.0,0 STARLINK-4567,1 53970U 22125G   23354.05581996  .00005960  00000-0  39212-3 0  9996,2 53970  53.2158 258.2392 0001611  91.1741 268.9436 15.08851145 67080,6917.846,95.437,540.826,538.597,0.0
53970.0,STARLINK-4567,PAYLOAD,2023-12-20 22:00:23,15.08852155,0.0001752,53.2157,254.3729,89.1367,270.9826,0.00032037,4.816e-05,0.0,0 STARLINK-4567,1 53970U 22125G   23354.91693906  .00004816  00000-0  32037-3 0  9993,2 53970  53.2157 254.3729 0001752  89.1367 270.9826 15.08852155 67153,6917.843,95.437,540.92,538.496,0.0
53970.0,STARLINK-4567,PAYLOAD,2023-12-21 01:11:10,15.08846157,0.0001898,53.2163,253.785,82.8032,277.3176,0.00021567,3.147e-05,0.0,0 STARLINK-4567,1 53970U 22125G   23355.04942243  .00003147  00000-0  21567-3 0  9991,2 53970  53.2163 253.7850 0001898  82.8032 277.3176 15.08846157 67231,6917.862,95.437,541.04,538.414,0.0
53970.0,STARLINK-4567,PAYLOAD,2023-12-21 21:51:10,15.08842784,0.0001732,53.2164,249.9178,99.8496,260.2692,-9.0106e-05,-1.722e-05,0.0,0 STARLINK-4567,1 53970U 22125G   23355.91054142 -.00001722  00000-0 -90106-4 0  9994,2 53970  53.2164 249.9178 0001732  99.8496 260.2692 15.08842784 67305,6917.872,95.437,540.935,538.539,0.0
53970.0,STARLINK-4567,PAYLOAD,2023-12-21 23:26:33,15.08843245,0.0001737,53.2164,249.6212,98.1889,261.93,-7.2908e-05,-1.448e-05,0.0,0 STARLINK-4567,1 53970U 22125G   23355.97678144 -.00001448  00000-0 -72908-4 0  9999,2 53970  53.2164 249.6212 0001737  98.1889 261.9300 15.08843245 67378,6917.87,95.437,540.937,538.534,0.0
53970.0,STARLINK-4567,PAYLOAD,2023-12-22 21:41:57,15.08845864,0.0001752,53.2161,245.461,113.4982,246.6194,8.965e-05,1.139e-05,0.0,0 STARLINK-4567,1 53970U 22125G   23356.90414095  .00001139  00000-0  89650-4 0  9993,2 53970  53.2161 245.4610 0001752 113.4982 246.6194 15.08845864 67452,6917.862,95.437,540.939,538.515,0.0
53970.0,STARLINK-4567,PAYLOAD,2023-12-23 02:28:07,15.08848286,0.0001739,53.2169,244.5571,98.904,261.215,0.00016476,2.336e-05,0.0,0 STARLINK-4567,1 53970U 22125G   23357.10285931  .00002336  00000-0  16476-3 0  9996,2 53970  53.2169 244.5571 0001739  98.9040 261.2150 15.08848286 67549,6917.855,95.437,540.923,538.517,0.0
53970.0,STARLINK-4567,PAYLOAD,2023-12-23 19:57:21,15.08842813,0.0001583,53.2158,241.2825,90.3579,269.7595,0.00014037,1.947e-05,0.0,0 STARLINK-4567,1 53970U 22125G   23357.83150263  .00001947  00000-0  14037-3 0  9993,2 53970  53.2158 241.2825 0001583  90.3579 269.7595 15.08842813 67651,6917.872,95.437,540.832,538.642,0.0
53970.0,STARLINK-4567,PAYLOAD,2023-12-23 21:32:44,15.08842996,0.0001575,53.2156,240.9853,87.5927,272.5246,0.00013573,1.873e-05,0.0,0 STARLINK-4567,1 53970U 22125G   23357.89774263  .00001873  00000-0  13573-3 0  9993,2 53970  53.2156 240.9853 0001575  87.5927 272.5246 15.08842996 67604,6917.871,95.437,540.826,538.647,0.0
53970.0,STARLINK-4567,PAYLOAD,2023-12-24 02:18:54,15.08841038,0.0001639,53.216,240.0954,93.6045,266.5135,9.4888e-05,1.222e-05,0.0,0 STARLINK-4567,1 53970U 22125G   23358.09646338  .00001222  00000-0  94888-4 0  9994,2 53970  53.2160 240.0954 0001639  93.6045 266.5135 15.08841038 67631,6917.877,95.437,540.876,538.608,0.0
53970.0,STARLINK-4567,PAYLOAD,2023-12-24 21:23:31,15.08839697,0.0001903,53.2154,236.5275,117.1477,242.9709,0.00031489,4.727e-05,0.0,0 STARLINK-4567,1 53970U 22125G   23358.89134205  .00004727  00000-0  31489-3 0  9997,2 53970  53.2154 236.5275 0001903 117.1477 242.9709 15.08839697 67751,6917.881,95.438,541.063,538.43,0.0
53970.0,STARLINK-4567,PAYLOAD,2023-12-25 19:38:56,15.08837434,0.0001555,53.2166,232.3728,101.7529,258.3638,-3.1996e-05,-7.97e-06,0.0,0 STARLINK-4567,1 53970U 22125G   23359.81870499 -.00000797  00000-0 -31996-4 0  9991,2 53970  53.2166 232.3728 0001555 101.7529 258.3638 15.08837434 67952,6917.888,95.438,540.829,538.678,0.0
53970.0,STARLINK-4567,PAYLOAD,2023-12-25 21:14:19,15.08836802,0.0001629,53.2175,232.0771,108.511,251.606,2.8456e-05,1.65e-06,0.0,0 STARLINK-4567,1 53970U 22125G   23359.88494781  .00000165  00000-0  28456-4 0  9998,2 53970  53.2175 232.0771 0001629 108.5110 251.6060 15.08836802 67908,6917.89,95.438,540.882,538.628,0.0
53970.0,STARLINK-4567,PAYLOAD,2023-12-26 14:43:34,15.08816018,0.0001303,53.2172,228.8036,97.4854,262.6286,0.00041448,6.31e-05,0.0,0 STARLINK-4567,1 53970U 22125G   23360.61359681  .00006310  00000-0  41448-3 0  9993,2 53970  53.2172 228.8036 0001303  97.4854 262.6286 15.08816018 68014,6917.954,95.439,540.72,538.917,0.0
53970.0,STARLINK-4567,PAYLOAD,2023-12-26 22:40:29,15.08838799,0.0001394,53.2162,227.3144,83.3313,276.7837,2.4999e-05,1.1e-06,0.0,0 STARLINK-4567,1 53970U 22125G   23360.94478863  .00000110  00000-0  24999-4 0  9998,2 53970  53.2162 227.3144 0001394  83.3313 276.7837 15.08838799 68064,6917.884,95.438,540.713,538.785,0.0
53970.0,STARLINK-4567,PAYLOAD,2023-12-27 00:15:52,15.08840486,0.0001417,53.2162,227.0164,91.7344,268.381,3.3541e-05,2.46e-06,0.0,0 STARLINK-4567,1 53970U 22125G   23361.01102681  .00000246  00000-0  33541-4 0  9992,2 53970  53.2162 227.0164 0001417  91.7344 268.3810 15.08840486 68138,6917.879,95.438,540.724,538.764,0.0
53970.0,STARLINK-4567,PAYLOAD,2023-12-27 22:31:16,15.08839281,0.0001391,53.2159,222.8532,94.9256,265.1895,9.6853e-05,1.254e-05,0.0,0 STARLINK-4567,1 53970U 22125G   23361.93838763  .00001254  00000-0  96853-4 0  9995,2 53970  53.2159 222.8532 0001391  94.9256 265.1895 15.08839281 68212,6917.883,95.438,540.71,538.785,0.0
53970.0,STARLINK-4567,PAYLOAD,2023-12-28 00:06:39,15.08839812,0.0001397,53.2159,222.5558,94.1784,265.9368,0.00010098,1.32e-05,0.0,0 STARLINK-4567,1 53970U 22125G   23362.00462732  .00001320  00000-0  10098-3 0  9993,2 53970  53.2159 222.5558 0001397  94.1784 265.9368 15.08839812 68225,6917.881,95.438,540.712,538.78,0.0
